[{"OBJECT_NAME":"STARLINK-31668","OBJECT_ID":"2024-076S","EPOCH":"2026-03-09T04:52:43.093920","MEAN_MOTION":15.2756978,"ECCENTRICITY":0.0001291,"INCLINATION":43.0046,"RA_OF_ASC_NODE":11.2859,"ARG_OF_PERICENTER":278.2147,"MEAN_ANOMALY":81.8559,"EPHEMERIS_TYPE":0,"CLASSIFICATION_TYPE":"U","NORAD_CAT_ID":59580,"ELEMENT_SET_NO":999,"REV_AT_EPOCH":10643,"BSTAR":-0.0001011497,"MEAN_MOTION_DOT":-3.044e-5,"MEAN_MOTION_DDOT":0},{"OBJECT_NAME":"OBJECT B","OBJECT_ID":"2024-153B","EPOCH":"2026-03-09T23:15:18.632160","MEAN_MOTION":15.30512917,"ECCENTRICITY":0.00113423,"INCLINATION":97.6622,"RA_OF_ASC_NODE":204.9195,"ARG_OF_PERICENTER":149.8438,"MEAN_ANOMALY":210.3457,"EPHEMERIS_TYPE":0,"CLASSIFICATION_TYPE":"U","NORAD_CAT_ID":60746,"ELEMENT_SET_NO":999,"REV_AT_EPOCH":8476,"BSTAR":0.00066193599,"MEAN_MOTION_DOT":0.00019515,"MEAN_MOTION_DDOT":0}]
